[{"OBJECT_NAME":"ONEWEB-0261","OBJECT_ID":"2021-060N","EPOCH":"2025-11-06T03:50:37.453344","MEAN_MOTION":13.16593241,"ECCENTRICITY":0.00021118,"INCLINATION":87.899,"RA_OF_ASC_NODE":273.2191,"ARG_OF_PERICENTER":94.1159,"MEAN_ANOMALY":266.0214,"EPHEMERIS_TYPE":0,"CLASSIFICATION_TYPE":"U","NORAD_CAT_ID":48979,"ELEMENT_SET_NO":999,"REV_AT_EPOCH":21031,"BSTAR":-0.00030335384,"MEAN_MOTION_DOT":-1.03e-6,"MEAN_MOTION_DDOT":0},{"OBJECT_NAME":"ONEWEB-0262","OBJECT_ID":"2021-060P","EPOCH":"2025-11-06T07:00:57.822624","MEAN_MOTION":13.16595892,"ECCENTRICITY":0.00022525,"INCLINATION":87.8999,"RA_OF_ASC_NODE":273.1627,"ARG_OF_PERICENTER":81.4554,"MEAN_ANOMALY":278.6832,"EPHEMERIS_TYPE":0,"CLASSIFICATION_TYPE":"U","NORAD_CAT_ID":48980,"ELEMENT_SET_NO":999,"REV_AT_EPOCH":21029,"BSTAR":0.00011385213,"MEAN_MOTION_DOT":5.6e-7,"MEAN_MOTION_DDOT":0},{"OBJECT_NAME":"ONEWEB-0263","OBJECT_ID":"2021-060Q","EPOCH":"2025-11-05T20:49:57.933696","MEAN_MOTION":13.16595162,"ECCENTRICITY":0.00022085,"INCLINATION":87.8988,"RA_OF_ASC_NODE":273.2644,"ARG_OF_PERICENTER":91.3579,"MEAN_ANOMALY":268.7804,"EPHEMERIS_TYPE":0,"CLASSIFICATION_TYPE":"U","NORAD_CAT_ID":48981,"ELEMENT_SET_NO":999,"REV_AT_EPOCH":21020,"BSTAR":6.2151319e-5,"MEAN_MOTION_DOT":3.7e-7,"MEAN_MOTION_DDOT":0},{"OBJECT_NAME":"ONEWEB-0264","OBJECT_ID":"2021-060R","EPOCH":"2025-11-06T06:50:43.691424","MEAN_MOTION":13.16592437,"ECCENTRICITY":0.00018292,"INCLINATION":87.899,"RA_OF_ASC_NODE":273.1856,"ARG_OF_PERICENTER":89.9973,"MEAN_ANOMALY":270.1368,"EPHEMERIS_TYPE":0,"CLASSIFICATION_TYPE":"U","NORAD_CAT_ID":48982,"ELEMENT_SET_NO":999,"REV_AT_EPOCH":21026,"BSTAR":5.2954038e-5,"MEAN_MOTION_DOT":3.3e-7,"MEAN_MOTION_DDOT":0},{"OBJECT_NAME":"ONEWEB-0266","OBJECT_ID":"2021-060T","EPOCH":"2025-11-06T07:21:30.176064","MEAN_MOTION":13.16595447,"ECCENTRICITY":0.00019742,"INCLINATION":87.9,"RA_OF_ASC_NODE":273.1633,"ARG_OF_PERICENTER":77.8254,"MEAN_ANOMALY":282.3098,"EPHEMERIS_TYPE":0,"CLASSIFICATION_TYPE":"U","NORAD_CAT_ID":48984,"ELEMENT_SET_NO":999,"REV_AT_EPOCH":21025,"BSTAR":-0.00015382145,"MEAN_MOTION_DOT":-4.6e-7,"MEAN_MOTION_DDOT":0},{"OBJECT_NAME":"ONEWEB-0267","OBJECT_ID":"2021-060U","EPOCH":"2025-11-05T15:12:32.779008","MEAN_MOTION":13.16592668,"ECCENTRICITY":0.00020129,"INCLINATION":87.8992,"RA_OF_ASC_NODE":273.2983,"ARG_OF_PERICENTER":90.3876,"MEAN_ANOMALY":269.7485,"EPHEMERIS_TYPE":0,"CLASSIFICATION_TYPE":"U","NORAD_CAT_ID":48985,"ELEMENT_SET_NO":999,"REV_AT_EPOCH":21017,"BSTAR":0.00010665107,"MEAN_MOTION_DOT":5.4e-7,"MEAN_MOTION_DDOT":0},{"OBJECT_NAME":"ONEWEB-0268","OBJECT_ID":"2021-060V","EPOCH":"2025-11-06T06:51:50.635008","MEAN_MOTION":13.16592806,"ECCENTRICITY":0.00018551,"INCLINATION":87.9001,"RA_OF_ASC_NODE":273.1757,"ARG_OF_PERICENTER":84.1287,"MEAN_ANOMALY":276.0055,"EPHEMERIS_TYPE":0,"CLASSIFICATION_TYPE":"U","NORAD_CAT_ID":48986,"ELEMENT_SET_NO":999,"REV_AT_EPOCH":21052,"BSTAR":0.00015816901,"MEAN_MOTION_DOT":7.3e-7,"MEAN_MOTION_DDOT":0},{"OBJECT_NAME":"ONEWEB-0269","OBJECT_ID":"2021-060W","EPOCH":"2025-11-06T06:24:30.232512","MEAN_MOTION":13.16593213,"ECCENTRICITY":0.00017044,"INCLINATION":87.8987,"RA_OF_ASC_NODE":273.2051,"ARG_OF_PERICENTER":82.2312,"MEAN_ANOMALY":277.9013,"EPHEMERIS_TYPE":0,"CLASSIFICATION_TYPE":"U","NORAD_CAT_ID":48987,"ELEMENT_SET_NO":999,"REV_AT_EPOCH":21029,"BSTAR":0.00032686174,"MEAN_MOTION_DOT":1.38e-6,"MEAN_MOTION_DDOT":0},{"OBJECT_NAME":"ONEWEB-0270","OBJECT_ID":"2021-060X","EPOCH":"2025-11-06T06:49:35.008608","MEAN_MOTION":13.16593349,"ECCENTRICITY":0.00023007,"INCLINATION":87.8999,"RA_OF_ASC_NODE":273.1778,"ARG_OF_PERICENTER":87.2696,"MEAN_ANOMALY":272.8698,"EPHEMERIS_TYPE":0,"CLASSIFICATION_TYPE":"U","NORAD_CAT_ID":48988,"ELEMENT_SET_NO":999,"REV_AT_EPOCH":21033,"BSTAR":5.617253e-5,"MEAN_MOTION_DOT":3.4e-7,"MEAN_MOTION_DDOT":0},{"OBJECT_NAME":"ONEWEB-0271","OBJECT_ID":"2021-060Y","EPOCH":"2025-11-06T06:31:19.018560","MEAN_MOTION":13.16596189,"ECCENTRICITY":0.00020445,"INCLINATION":87.901,"RA_OF_ASC_NODE":273.1663,"ARG_OF_PERICENTER":90.4528,"MEAN_ANOMALY":269.6837,"EPHEMERIS_TYPE":0,"CLASSIFICATION_TYPE":"U","NORAD_CAT_ID":48989,"ELEMENT_SET_NO":999,"REV_AT_EPOCH":21033,"BSTAR":0.00029832668,"MEAN_MOTION_DOT":1.27e-6,"MEAN_MOTION_DDOT":0},{"OBJECT_NAME":"ONEWEB-0272","OBJECT_ID":"2021-060Z","EPOCH":"2025-11-06T07:03:14.326848","MEAN_MOTION":13.16596143,"ECCENTRICITY":0.00018851,"INCLINATION":87.8991,"RA_OF_ASC_NODE":273.1834,"ARG_OF_PERICENTER":91.1828,"MEAN_ANOMALY":268.9519,"EPHEMERIS_TYPE":0,"CLASSIFICATION_TYPE":"U","NORAD_CAT_ID":48990,"ELEMENT_SET_NO":999,"REV_AT_EPOCH":21028,"BSTAR":4.9096767e-5,"MEAN_MOTION_DOT":3.2e-7,"MEAN_MOTION_DDOT":0},{"OBJECT_NAME":"ONEWEB-0273","OBJECT_ID":"2021-060AA","EPOCH":"2025-11-06T03:56:18.830976","MEAN_MOTION":13.16593681,"ECCENTRICITY":0.00020418,"INCLINATION":87.8998,"RA_OF_ASC_NODE":273.2014,"ARG_OF_PERICENTER":85.3105,"MEAN_ANOMALY":274.826,"EPHEMERIS_TYPE":0,"CLASSIFICATION_TYPE":"U","NORAD_CAT_ID":48991,"ELEMENT_SET_NO":999,"REV_AT_EPOCH":21024,"BSTAR":-0.00032340293,"MEAN_MOTION_DOT":-1.11e-6,"MEAN_MOTION_DDOT":0},{"OBJECT_NAME":"ONEWEB-0274","OBJECT_ID":"2021-060AB","EPOCH":"2025-11-05T21:15:02.168064","MEAN_MOTION":13.16595606,"ECCENTRICITY":0.00016536,"INCLINATION":87.8982,"RA_OF_ASC_NODE":273.2841,"ARG_OF_PERICENTER":96.1232,"MEAN_ANOMALY":264.0087,"EPHEMERIS_TYPE":0,"CLASSIFICATION_TYPE":"U","NORAD_CAT_ID":48992,"ELEMENT_SET_NO":999,"REV_AT_EPOCH":21024,"BSTAR":0.00025337337,"MEAN_MOTION_DOT":1.1e-6,"MEAN_MOTION_DDOT":0},{"OBJECT_NAME":"ONEWEB-0275","OBJECT_ID":"2021-060AC","EPOCH":"2025-11-06T04:16:48.960480","MEAN_MOTION":13.16595992,"ECCENTRICITY":0.0001863,"INCLINATION":87.8998,"RA_OF_ASC_NODE":273.1923,"ARG_OF_PERICENTER":86.1597,"MEAN_ANOMALY":273.9747,"EPHEMERIS_TYPE":0,"CLASSIFICATION_TYPE":"U","NORAD_CAT_ID":48993,"ELEMENT_SET_NO":999,"REV_AT_EPOCH":21021,"BSTAR":-1.6178616e-5,"MEAN_MOTION_DOT":7.0e-8,"MEAN_MOTION_DDOT":0},{"OBJECT_NAME":"ONEWEB-0276","OBJECT_ID":"2021-060AD","EPOCH":"2025-11-06T06:54:08.012736","MEAN_MOTION":13.16595422,"ECCENTRICITY":0.0002111,"INCLINATION":87.9,"RA_OF_ASC_NODE":273.1695,"ARG_OF_PERICENTER":81.3199,"MEAN_ANOMALY":278.8171,"EPHEMERIS_TYPE":0,"CLASSIFICATION_TYPE":"U","NORAD_CAT_ID":48994,"ELEMENT_SET_NO":999,"REV_AT_EPOCH":21024,"BSTAR":1.3469728e-5,"MEAN_MOTION_DOT":1.8e-7,"MEAN_MOTION_DDOT":0},{"OBJECT_NAME":"ONEWEB-0277","OBJECT_ID":"2021-060AE","EPOCH":"2025-11-06T07:12:25.874208","MEAN_MOTION":13.16596577,"ECCENTRICITY":0.00019055,"INCLINATION":87.8992,"RA_OF_ASC_NODE":273.1949,"ARG_OF_PERICENTER":89.7864,"MEAN_ANOMALY":270.3485,"EPHEMERIS_TYPE":0,"CLASSIFICATION_TYPE":"U","NORAD_CAT_ID":48995,"ELEMENT_SET_NO":999,"REV_AT_EPOCH":21023,"BSTAR":-6.0582465e-5,"MEAN_MOTION_DOT":-1.0e-7,"MEAN_MOTION_DDOT":0},{"OBJECT_NAME":"ONEWEB-0278","OBJECT_ID":"2021-060AF","EPOCH":"2025-11-06T06:58:42.161664","MEAN_MOTION":13.16592645,"ECCENTRICITY":0.00019262,"INCLINATION":87.9,"RA_OF_ASC_NODE":273.1654,"ARG_OF_PERICENTER":76.1411,"MEAN_ANOMALY":283.9934,"EPHEMERIS_TYPE":0,"CLASSIFICATION_TYPE":"U","NORAD_CAT_ID":48996,"ELEMENT_SET_NO":999,"REV_AT_EPOCH":21036,"BSTAR":1.6651299e-5,"MEAN_MOTION_DOT":1.9e-7,"MEAN_MOTION_DDOT":0}]
