ONEWEB-0261             
1 48979U 21060N   25310.16015571 -.00000103  00000+0 -30335-3 0  9995
2 48979  87.8990 273.2191 0002111  94.1159 266.0214 13.16593241210312
ONEWEB-0262             
1 48980U 21060P   25310.29233591  .00000056  00000+0  11385-3 0  9994
2 48980  87.8999 273.1627 0002252  81.4554 278.6832 13.16595892210296
ONEWEB-0263             
1 48981U 21060Q   25309.86803164  .00000037  00000+0  62151-4 0  9992
2 48981  87.8988 273.2644 0002208  91.3579 268.7804 13.16595162210203
ONEWEB-0264             
1 48982U 21060R   25310.28522791  .00000033  00000+0  52954-4 0  9991
2 48982  87.8990 273.1856 0001829  89.9973 270.1368 13.16592437210260
ONEWEB-0266             
1 48984U 21060T   25310.30659926 -.00000046  00000+0 -15382-3 0  9996
2 48984  87.9000 273.1633 0001974  77.8254 282.3098 13.16595447210255
ONEWEB-0267             
1 48985U 21060U   25309.63371272  .00000054  00000+0  10665-3 0  9992
2 48985  87.8992 273.2983 0002012  90.3876 269.7485 13.16592668210170
ONEWEB-0268             
1 48986U 21060V   25310.28600272  .00000073  00000+0  15817-3 0  9996
2 48986  87.9001 273.1757 0001855  84.1287 276.0055 13.16592806210529
ONEWEB-0269             
1 48987U 21060W   25310.26701658  .00000138  00000+0  32686-3 0  9990
2 48987  87.8987 273.2051 0001704  82.2312 277.9013 13.16593213210292
ONEWEB-0270             
1 48988U 21060X   25310.28443297  .00000034  00000+0  56173-4 0  9998
2 48988  87.8999 273.1778 0002300  87.2696 272.8698 13.16593349210332
ONEWEB-0271             
1 48989U 21060Y   25310.27174790  .00000127  00000+0  29833-3 0  9992
2 48989  87.9010 273.1663 0002044  90.4528 269.6837 13.16596189210330
ONEWEB-0272             
1 48990U 21060Z   25310.29391582  .00000032  00000+0  49097-4 0  9996
2 48990  87.8991 273.1834 0001885  91.1828 268.9519 13.16596143210285
ONEWEB-0273             
1 48991U 21060AA  25310.16410684 -.00000111  00000+0 -32340-3 0  9990
2 48991  87.8998 273.2014 0002041  85.3105 274.8260 13.16593681210241
ONEWEB-0274             
1 48992U 21060AB  25309.88544176  .00000110  00000+0  25337-3 0  9997
2 48992  87.8982 273.2841 0001653  96.1232 264.0087 13.16595606210249
ONEWEB-0275             
1 48993U 21060AC  25310.17834445  .00000007  00000+0 -16179-4 0  9994
2 48993  87.8998 273.1923 0001863  86.1597 273.9747 13.16595992210210
ONEWEB-0276             
1 48994U 21060AD  25310.28759274  .00000018  00000+0  13470-4 0  9995
2 48994  87.9000 273.1695 0002111  81.3199 278.8171 13.16595422210240
ONEWEB-0277             
1 48995U 21060AE  25310.30029947 -.00000010  00000+0 -60582-4 0  9996
2 48995  87.8992 273.1949 0001905  89.7864 270.3485 13.16596577210239
ONEWEB-0278             
1 48996U 21060AF  25310.29076576  .00000019  00000+0  16651-4 0  9990
2 48996  87.9000 273.1654 0001926  76.1411 283.9934 13.16592645210360
